STARLINK-36923
1 68016U 26040B   26090.83335647 -.01912697  00000+0 -22182-1 0  9991
2 68016  97.2855  40.3548 0001877 100.9741 116.4088 15.64854359  5999
